{
  "type": "FeatureCollection",
  "features": [
    {
      "type": "Feature",
      "properties": {
        "norad_id": 26766,
        "name": "INTELSAT 10 (IS-10)",
        "group": "intelsat",
        "lat": -8.403633339379137,
        "lon": -42.2106349717075,
        "alt_km": 36097.51763532935,
        "timestamp": "2025-12-09T05:43:20.395271+00:00",
        "meta_object_name": "INTELSAT 10 (IS-10)",
        "meta_object_id": "2001-019A",
        "meta_epoch": "2025-12-08T12:50:38.847840",
        "meta_mean_motion": 0.99078973,
        "meta_eccentricity": 0.0007853,
        "meta_inclination": 8.6199,
        "meta_ra_of_asc_node": 61.1985,
        "meta_arg_of_pericenter": 221.9209,
        "meta_mean_anomaly": 143.9126,
        "meta_ephemeris_type": 0,
        "meta_classification_type": "U",
        "meta_norad_cat_id": 26766,
        "meta_element_set_no": 999,
        "meta_rev_at_epoch": 4369,
        "meta_bstar": 0,
        "meta_mean_motion_dot": -2.74e-06,
        "meta_mean_motion_ddot": 0,
        "tle_line1": "1 26766U 01019A   25342.53517185 -.00000274  00000+0  00000+0 0  9991",
        "tle_line2": "2 26766   8.6199  61.1985 0007853 221.9209 143.9126  0.99078973 43690"
      },
      "geometry": {
        "type": "Point",
        "coordinates": [
          -42.2106349717075,
          -8.403633339379137
        ]
      }
    },
    {
      "type": "Feature",
      "properties": {
        "norad_id": 26900,
        "name": "INTELSAT 902 (IS-902)",
        "group": "intelsat",
        "lat": 3.618910950479532,
        "lon": 113.71171289852772,
        "alt_km": 35799.88756933136,
        "timestamp": "2025-12-09T05:43:20.395297+00:00",
        "meta_object_name": "INTELSAT 902 (IS-902)",
        "meta_object_id": "2001-039A",
        "meta_epoch": "2025-12-01T16:59:59.311968",
        "meta_mean_motion": 1.00270327,
        "meta_eccentricity": 0.00043097,
        "meta_inclination": 5.6187,
        "meta_ra_of_asc_node": 74.2002,
        "meta_arg_of_pericenter": 175.119,
        "meta_mean_anomaly": 26.3816,
        "meta_ephemeris_type": 0,
        "meta_classification_type": "U",
        "meta_norad_cat_id": 26900,
        "meta_element_set_no": 999,
        "meta_rev_at_epoch": 8871,
        "meta_bstar": 0,
        "meta_mean_motion_dot": -2.63e-06,
        "meta_mean_motion_ddot": 0,
        "tle_line1": "1 26900U 01039A   25335.70832537 -.00000263  00000+0  00000+0 0  9993",
        "tle_line2": "2 26900   5.6187  74.2002 0004309 175.1190  26.3816  1.00270327 88713"
      },
      "geometry": {
        "type": "Point",
        "coordinates": [
          113.71171289852772,
          3.618910950479532
        ]
      }
    },
    {
      "type": "Feature",
      "properties": {
        "norad_id": 27380,
        "name": "INTELSAT 904 (IS-904)",
        "group": "intelsat",
        "lat": 5.650765796625329,
        "lon": 132.36056562280933,
        "alt_km": 35792.28895398866,
        "timestamp": "2025-12-09T05:43:20.395314+00:00",
        "meta_object_name": "INTELSAT 904 (IS-904)",
        "meta_object_id": "2002-007A",
        "meta_epoch": "2025-12-08T15:09:58.269024",
        "meta_mean_motion": 1.00268358,
        "meta_eccentricity": 0.0001612,
        "meta_inclination": 6.4433,
        "meta_ra_of_asc_node": 71.4765,
        "meta_arg_of_pericenter": 211.5706,
        "meta_mean_anomaly": 350.5417,
        "meta_ephemeris_type": 0,
        "meta_classification_type": "U",
        "meta_norad_cat_id": 27380,
        "meta_element_set_no": 999,
        "meta_rev_at_epoch": 8717,
        "meta_bstar": 0,
        "meta_mean_motion_dot": -2.26e-06,
        "meta_mean_motion_ddot": 0,
        "tle_line1": "1 27380U 02007A   25342.63192441 -.00000226  00000+0  00000+0 0  9994",
        "tle_line2": "2 27380   6.4433  71.4765 0001612 211.5706 350.5417  1.00268358 87175"
      },
      "geometry": {
        "type": "Point",
        "coordinates": [
          132.36056562280933,
          5.650765796625329
        ]
      }
    },
    {
      "type": "Feature",
      "properties": {
        "norad_id": 27426,
        "name": "DIRECTV 5 (TEMPO 1)",
        "group": "intelsat",
        "lat": -1.7464866463698299,
        "lon": 54.04360981051207,
        "alt_km": 35798.441057944256,
        "timestamp": "2025-12-09T05:43:20.395328+00:00",
        "meta_object_name": "DIRECTV 5 (TEMPO 1)",
        "meta_object_id": "2002-023A",
        "meta_epoch": "2025-12-08T16:30:20.570976",
        "meta_mean_motion": 1.00271885,
        "meta_eccentricity": 0.0003912,
        "meta_inclination": 4.3919,
        "meta_ra_of_asc_node": 77.6983,
        "meta_arg_of_pericenter": 199.1357,
        "meta_mean_anomaly": 298.3249,
        "meta_ephemeris_type": 0,
        "meta_classification_type": "U",
        "meta_norad_cat_id": 27426,
        "meta_element_set_no": 999,
        "meta_rev_at_epoch": 8621,
        "meta_bstar": 0,
        "meta_mean_motion_dot": -5.6e-07,
        "meta_mean_motion_ddot": 0,
        "tle_line1": "1 27426U 02023A   25342.68773809 -.00000056  00000+0  00000+0 0  9992",
        "tle_line2": "2 27426   4.3919  77.6983 0003912 199.1357 298.3249  1.00271885 86215"
      },
      "geometry": {
        "type": "Point",
        "coordinates": [
          54.04360981051207,
          -1.7464866463698299
        ]
      }
    },
    {
      "type": "Feature",
      "properties": {
        "norad_id": 27438,
        "name": "INTELSAT 905 (IS-905)",
        "group": "intelsat",
        "lat": -4.43956875055274,
        "lon": 27.061663492763778,
        "alt_km": 35793.74271453216,
        "timestamp": "2025-12-09T05:43:20.395341+00:00",
        "meta_object_name": "INTELSAT 905 (IS-905)",
        "meta_object_id": "2002-027A",
        "meta_epoch": "2025-12-08T12:00:17.267040",
        "meta_mean_motion": 1.00271271,
        "meta_eccentricity": 0.00028954,
        "meta_inclination": 6.2751,
        "meta_ra_of_asc_node": 72.1034,
        "meta_arg_of_pericenter": 189.9537,
        "meta_mean_anomaly": 218.3132,
        "meta_ephemeris_type": 0,
        "meta_classification_type": "U",
        "meta_norad_cat_id": 27438,
        "meta_element_set_no": 999,
        "meta_rev_at_epoch": 4945,
        "meta_bstar": 0,
        "meta_mean_motion_dot": 9.4e-07,
        "meta_mean_motion_ddot": 0,
        "tle_line1": "1 27438U 02027A   25342.50019985  .00000094  00000+0  00000+0 0  9999",
        "tle_line2": "2 27438   6.2751  72.1034 0002895 189.9537 218.3132  1.00271271 49453"
      },
      "geometry": {
        "type": "Point",
        "coordinates": [
          27.061663492763778,
          -4.43956875055274
        ]
      }
    },
    {
      "type": "Feature",
      "properties": {
        "norad_id": 27445,
        "name": "GALAXY 3C (G-3C)",
        "group": "intelsat",
        "lat": -0.6193369863544267,
        "lon": 69.20897674236184,
        "alt_km": 35788.163777559064,
        "timestamp": "2025-12-09T05:43:20.395353+00:00",
        "meta_object_name": "GALAXY 3C (G-3C)",
        "meta_object_id": "2002-030A",
        "meta_epoch": "2025-12-08T18:18:47.201184",
        "meta_mean_motion": 1.00270897,
        "meta_eccentricity": 0.0001142,
        "meta_inclination": 3.2543,
        "meta_ra_of_asc_node": 80.5462,
        "meta_arg_of_pericenter": 99.6884,
        "meta_mean_anomaly": 77.3645,
        "meta_ephemeris_type": 0,
        "meta_classification_type": "U",
        "meta_norad_cat_id": 27445,
        "meta_element_set_no": 999,
        "meta_rev_at_epoch": 4458,
        "meta_bstar": 0,
        "meta_mean_motion_dot": -1.51e-06,
        "meta_mean_motion_ddot": 0,
        "tle_line1": "1 27445U 02030A   25342.76304631 -.00000151  00000+0  00000+0 0  9999",
        "tle_line2": "2 27445   3.2543  80.5462 0001142  99.6884  77.3645  1.00270897 44585"
      },
      "geometry": {
        "type": "Point",
        "coordinates": [
          69.20897674236184,
          -0.6193369863544267
        ]
      }
    },
    {
      "type": "Feature",
      "properties": {
        "norad_id": 27513,
        "name": "INTELSAT 906 (IS-906)",
        "group": "intelsat",
        "lat": 2.4045315420783293,
        "lon": -131.73547936560803,
        "alt_km": 35765.33453420412,
        "timestamp": "2025-12-09T05:43:20.395366+00:00",
        "meta_object_name": "INTELSAT 906 (IS-906)",
        "meta_object_id": "2002-041A",
        "meta_epoch": "2025-12-08T18:22:38.831808",
        "meta_mean_motion": 1.00270837,
        "meta_eccentricity": 0.0006089,
        "meta_inclination": 5.3187,
        "meta_ra_of_asc_node": 75.2788,
        "meta_arg_of_pericenter": 189.6104,
        "meta_mean_anomaly": 152.6755,
        "meta_ephemeris_type": 0,
        "meta_classification_type": "U",
        "meta_norad_cat_id": 27513,
        "meta_element_set_no": 999,
        "meta_rev_at_epoch": 8511,
        "meta_bstar": 0,
        "meta_mean_motion_dot": 1.4e-07,
        "meta_mean_motion_ddot": 0,
        "tle_line1": "1 27513U 02041A   25342.76572722  .00000014  00000+0  00000+0 0  9992",
        "tle_line2": "2 27513   5.3187  75.2788 0006089 189.6104 152.6755  1.00270837 85117"
      },
      "geometry": {
        "type": "Point",
        "coordinates": [
          -131.73547936560803,
          2.4045315420783293
        ]
      }
    }
  ]
}